[{"OBJECT_NAME":"ONEWEB-0661","OBJECT_ID":"2023-029AB","EPOCH":"2026-03-09T16:12:51.430464","MEAN_MOTION":13.14502994,"ECCENTRICITY":0.00013961,"INCLINATION":87.8978,"RA_OF_ASC_NODE":309.6081,"ARG_OF_PERICENTER":90.1887,"MEAN_ANOMALY":269.9403,"EPHEMERIS_TYPE":0,"CLASSIFICATION_TYPE":"U","NORAD_CAT_ID":55821,"ELEMENT_SET_NO":999,"REV_AT_EPOCH":14631,"BSTAR":-7.5684834e-5,"MEAN_MOTION_DOT":-1.5e-7,"MEAN_MOTION_DDOT":0},{"OBJECT_NAME":"FENGYUN 1C DEB","OBJECT_ID":"1999-025GV","EPOCH":"2026-03-09T08:00:14.396544","MEAN_MOTION":13.37527329,"ECCENTRICITY":0.03525941,"INCLINATION":98.6727,"RA_OF_ASC_NODE":216.218,"ARG_OF_PERICENTER":221.0268,"MEAN_ANOMALY":136.3848,"EPHEMERIS_TYPE":0,"CLASSIFICATION_TYPE":"U","NORAD_CAT_ID":29899,"ELEMENT_SET_NO":999,"REV_AT_EPOCH":93242,"BSTAR":0.00037080278,"MEAN_MOTION_DOT":2.42e-6,"MEAN_MOTION_DDOT":0}]
